NORAD_CAT_ID,OBJECT_NAME,OBJECT_TYPE,EPOCH,MEAN_MOTION,ECCENTRICITY,INCLINATION,RA_OF_ASC_NODE,ARG_OF_PERICENTER,MEAN_ANOMALY,BSTAR,MEAN_MOTION_DOT,MEAN_MOTION_DDOT,TLE_LINE0,TLE_LINE1,TLE_LINE2,SEMIMAJOR_AXIS,PERIOD,APOGEE,PERIGEE,DECAYED
53701.0,STARLINK-4711,PAYLOAD,2024-03-01 09:42:01,15.08840254,0.0001284,53.2177,318.0,86.2682,273.8457,4.6072e-05,4.45e-06,0.0,0 STARLINK-4711,1 53701U 22107B   24061.40418368  .00000445  00000-0  46072-4 0  9991,2 53701  53.2177 318.0000 0001284  86.2682 273.8457 15.08840254 83400,6917.88,95.438,540.633,538.856,0.0
53701.0,STARLINK-4711,PAYLOAD,2024-03-01 20:49:43,15.08844364,0.0001223,53.2174,315.9184,79.0309,281.0821,1.9261e-05,1.9e-07,0.0,0 STARLINK-4711,1 53701U 22107B   24061.86786268  .00000019  00000-0  19261-4 0  9995,2 53701  53.2174 315.9184 0001223  79.0309 281.0821 15.08844364 82721,6917.867,95.437,540.578,538.886,0.0
53701.0,STARLINK-4711,PAYLOAD,2024-03-01 22:25:06,15.08844932,0.0001285,53.2175,315.621,76.6368,283.4767,4.5758e-05,4.41e-06,0.0,0 STARLINK-4711,1 53701U 22107B   24061.93410097  .00000441  00000-0  45758-4 0  9996,2 53701  53.2175 315.6210 0001285  76.6368 283.4767 15.08844932 83485,6917.865,95.437,540.619,538.841,0.0
53701.0,STARLINK-4711,PAYLOAD,2024-03-02 00:00:29,15.08848862,0.0001294,53.2179,315.3241,83.6266,276.4874,6.6571e-05,7.72e-06,0.0,0 STARLINK-4711,1 53701U 22107B   24062.00033742  .00000772  00000-0  66571-4 0  9996,2 53701  53.2179 315.3241 0001294  83.6266 276.4874 15.08848862 82740,6917.853,95.437,540.613,538.823,0.0
53701.0,STARLINK-4711,PAYLOAD,2024-03-02 22:15:53,15.08838576,0.0001414,53.2184,311.1651,97.7909,262.3243,2.4014e-05,9.4e-07,0.0,0 STARLINK-4711,1 53701U 22107B   24062.92770523  .00000094  00000-0  24014-4 0  9995,2 53701  53.2184 311.1651 0001414  97.7909 262.3243 15.08838576 83633,6917.885,95.438,540.728,538.772,0.0
53701.0,STARLINK-4711,PAYLOAD,2024-03-03 01:26:39,15.0884125,0.0001431,53.2187,310.568,99.7919,260.3234,3.4451e-05,2.6e-06,0.0,0 STARLINK-4711,1 53701U 22107B   24063.06018298  .00000260  00000-0  34451-4 0  9996,2 53701  53.2187 310.5680 0001431  99.7919 260.3234 15.08841250 82903,6917.877,95.437,540.732,538.752,0.0
53701.0,STARLINK-4711,PAYLOAD,2024-03-03 09:23:35,15.08837612,0.000139,53.2187,309.0808,91.4964,268.6187,-3.5232e-05,-8.49e-06,0.0,0 STARLINK-4711,1 53701U 22107B   24063.39138755 -.00000849  00000-0 -35232-4 0  9996,2 53701  53.2187 309.0808 0001390  91.4964 268.6187 15.08837612 83705,6917.888,95.438,540.714,538.791,0.0
53701.0,STARLINK-4711,PAYLOAD,2024-03-03 20:31:17,15.08837606,0.0001344,53.2187,306.9965,83.829,276.2855,-1.2235e-06,-3.07e-06,0.0,0 STARLINK-4711,1 53701U 22107B   24063.85506692 -.00000307  00000-0 -12235-5 0  9994,2 53701  53.2187 306.9965 0001344  83.8290 276.2855 15.08837606 83778,6917.888,95.438,540.682,538.823,0.0
53701.0,STARLINK-4711,PAYLOAD,2024-03-04 09:14:21,15.08854482,0.0001341,53.2174,304.6203,93.3045,266.81,4.616e-05,4.47e-06,0.0,0 STARLINK-4711,1 53701U 22107B   24064.38497263  .00000447  00000-0  46160-4 0  9992,2 53701  53.2174 304.6203 0001341  93.3045 266.8100 15.08854482 83101,6917.836,95.437,540.629,538.773,0.0
53701.0,STARLINK-4711,PAYLOAD,2024-03-04 21:57:26,15.08854061,0.0001251,53.2161,302.2418,84.1277,275.9858,0.0001385,1.918e-05,0.0,0 STARLINK-4711,1 53701U 22107B   24064.91488889  .00001918  00000-0  13850-3 0  9998,2 53701  53.2161 302.2418 0001251  84.1277 275.9858 15.08854061 83939,6917.837,95.437,540.568,538.837,0.0
53701.0,STARLINK-4711,PAYLOAD,2024-03-05 01:08:12,15.08860501,0.0001325,53.2174,301.6438,100.2394,259.8748,0.00018723,2.695e-05,0.0,0 STARLINK-4711,1 53701U 22107B   24065.04736202  .00002695  00000-0  18723-3 0  9995,2 53701  53.2174 301.6438 0001325 100.2394 259.8748 15.08860501 83957,6917.818,95.436,540.599,538.766,0.0
53701.0,STARLINK-4711,PAYLOAD,2024-03-05 20:12:51,15.08828937,0.0001476,53.2154,298.0787,81.373,278.743,-8.3203e-05,-1.611e-05,0.0,0 STARLINK-4711,1 53701U 22107B   24065.84226643 -.00001611  00000-0 -83203-4 0  9991,2 53701  53.2154 298.0787 0001476  81.3730 278.7430 15.08828937 83327,6917.914,95.438,540.8,538.758,0.0
53701.0,STARLINK-4711,PAYLOAD,2024-03-05 21:48:14,15.08833499,0.0001377,53.2171,297.7799,90.8891,269.2258,-0.00014113,-2.533e-05,0.0,0 STARLINK-4711,1 53701U 22107B   24065.90850413 -.00002533  00000-0 -14113-3 0  9993,2 53701  53.2171 297.7799 0001377  90.8891 269.2258 15.08833499 84084,6917.9,95.438,540.718,538.813,0.0
53701.0,STARLINK-4711,PAYLOAD,2024-03-06 20:03:38,15.08844199,0.00015,53.2177,293.617,88.4721,271.6443,7.1933e-05,8.57e-06,0.0,0 STARLINK-4711,1 53701U 22107B   24066.83586078  .00000857  00000-0  71933-4 0  9998,2 53701  53.2177 293.6170 0001500  88.4721 271.6443 15.08844199 83475,6917.868,95.437,540.77,538.695,0.0
53701.0,STARLINK-4711,PAYLOAD,2024-03-06 21:39:01,15.08847924,0.0001442,53.2165,293.3206,82.7303,277.3853,4.0998e-05,3.65e-06,0.0,0 STARLINK-4711,1 53701U 22107B   24066.90209911  .00000365  00000-0  40998-4 0  9995,2 53701  53.2165 293.3206 0001442  82.7303 277.3853 15.08847924 84239,6917.856,95.437,540.719,538.724,0.0
53701.0,STARLINK-4711,PAYLOAD,2024-03-08 00:40:35,15.08837347,0.0001313,53.2152,288.2628,81.7294,278.3847,0.00012907,1.767e-05,0.0,0 STARLINK-4711,1 53701U 22107B   24068.02818503  .00001767  00000-0  12907-3 0  9998,2 53701  53.2152 288.2628 0001313  81.7294 278.3847 15.08837347 83658,6917.888,95.438,540.662,538.845,0.0
53701.0,STARLINK-4711,PAYLOAD,2024-03-08 21:20:36,15.08837952,6.89e-05,53.216,284.4002,63.2111,296.8951,1.31e-05,-7.9e-07,0.0,0 STARLINK-4711,1 53701U 22107B   24068.88930575 -.00000079  00000-0  13100-4 0  9999,2 53701  53.2160 284.4002 0000689  63.2111 296.8951 15.08837952 84530,6917.887,95.438,540.228,539.275,0.0
53701.0,STARLINK-4711,PAYLOAD,2024-03-09 06:52:54,15.08840726,3.18e-05,53.215,282.6135,82.8911,277.2117,7.07e-05,8.38e-06,0.0,0 STARLINK-4711,1 53701U 22107B   24069.28674401  .00000838  00000-0  70700-4 0  9998,2 53701  53.2150 282.6135 0000318  82.8911 277.2117 15.08840726 83843,6917.878,95.438,539.963,539.523,0.0
53701.0,STARLINK-4711,PAYLOAD,2024-03-09 21:11:23,15.08837929,0.0001133,53.2147,279.9376,71.9408,288.1708,-2.5334e-05,-6.91e-06,0.0,0 STARLINK-4711,1 53701U 22107B   24069.88290647 -.00000691  00000-0 -25334-4 0  9992,2 53701  53.2147 279.9376 0001133  71.9408 288.1708 15.08837929 84682,6917.887,95.438,540.536,538.968,0.0
53701.0,STARLINK-4711,PAYLOAD,2024-03-10 06:43:41,15.0883959,0.000107,53.2143,278.1529,74.0873,286.0237,-1.5389e-05,-5.33e-06,0.0,0 STARLINK-4711,1 53701U 22107B   24070.28034516 -.00000533  00000-0 -15389-4 0  9993,2 53701  53.2143 278.1529 0001070  74.0873 286.0237 15.08839590 84746,6917.882,95.438,540.487,539.006,0.0
53701.0,STARLINK-4711,PAYLOAD,2024-03-10 21:02:10,15.08841596,8.34e-05,53.2156,275.4767,78.9611,281.1475,-0.0002972,-5.015e-05,0.0,0 STARLINK-4711,1 53701U 22107B   24070.87650787 -.00005015  00000-0 -29720-3 0  9995,2 53701  53.2156 275.4767 0000834  78.9611 281.1475 15.08841596 84080,6917.876,95.437,540.317,539.164,0.0
53701.0,STARLINK-4711,PAYLOAD,2024-03-10 22:37:32,15.08850178,6.17e-05,53.2169,275.1798,71.1071,288.9988,-0.00045266,-7.486e-05,0.0,0 STARLINK-4711,1 53701U 22107B   24070.94274299 -.00007486  00000-0 -45266-3 0  9990,2 53701  53.2169 275.1798 0000617  71.1071 288.9988 15.08850178 84843,6917.849,95.437,540.141,539.287,0.0
53701.0,STARLINK-4711,PAYLOAD,2024-03-11 06:34:28,15.08848633,7.31e-05,53.2166,273.6925,72.3506,287.7566,-0.00027097,-4.598e-05,0.0,0 STARLINK-4711,1 53701U 22107B   24071.27394335 -.00004598  00000-0 -27097-3 0  9994,2 53701  53.2166 273.6925 0000731  72.3506 287.7566 15.08848633 84143,6917.854,95.437,540.225,539.213,0.0
53701.0,STARLINK-4711,PAYLOAD,2024-03-12 12:46:49,15.08838973,0.0001413,53.2159,268.0429,87.5145,272.6009,0.00017388,2.48e-05,0.0,0 STARLINK-4711,1 53701U 22107B   24072.53251397  .00002480  00000-0  17388-3 0  9992,2 53701  53.2159 268.0429 0001413  87.5145 272.6009 15.08838973 84339,6917.884,95.438,540.726,538.771,0.0
53701.0,STARLINK-4711,PAYLOAD,2024-03-13 12:37:35,15.08845006,0.0001456,53.2157,263.5832,88.3065,271.8094,0.00015276,2.144e-05,0.0,0 STARLINK-4711,1 53701U 22107B   24073.52611067  .00002144  00000-0  15276-3 0  9997,2 53701  53.2157 263.5832 0001456  88.3065 271.8094 15.08845006 85232,6917.865,95.437,540.737,538.723,0.0
53701.0,STARLINK-4711,PAYLOAD,2024-03-13 18:59:08,15.08843303,0.0001537,53.2159,262.3917,94.982,265.1348,0.00013335,1.835e-05,0.0,0 STARLINK-4711,1 53701U 22107B   24073.79107125  .00001835  00000-0  13335-3 0  9991,2 53701  53.2159 262.3917 0001537  94.9820 265.1348 15.08843303 84524,6917.87,95.437,540.799,538.672,0.0
53701.0,STARLINK-4711,PAYLOAD,2024-03-13 22:09:54,15.08842209,0.0001516,53.2158,261.798,93.4328,266.6837,0.0001049,1.382e-05,0.0,0 STARLINK-4711,1 53701U 22107B   24073.92355155  .00001382  00000-0  10490-3 0  9990,2 53701  53.2158 261.7980 0001516  93.4328 266.6837 15.08842209 85298,6917.874,95.437,540.787,538.69,0.0
53701.0,STARLINK-4711,PAYLOAD,2024-03-14 06:06:50,15.08839584,0.0001464,53.2125,260.3089,102.7906,257.325,6.7975e-05,7.94e-06,0.0,0 STARLINK-4711,1 53701U 22107B   24074.25475254  .00000794  00000-0  67975-4 0  9997,2 53701  53.2125 260.3089 0001464 102.7906 257.3250 15.08839584 85349,6917.882,95.438,540.759,538.734,0.0
53701.0,STARLINK-4711,PAYLOAD,2024-03-14 22:00:41,15.08843026,0.0001367,53.214,257.3348,101.4435,258.6711,0.00010265,1.346e-05,0.0,0 STARLINK-4711,1 53701U 22107B   24074.91715051  .00001346  00000-0  10265-3 0  9995,2 53701  53.2140 257.3348 0001367 101.4435 258.6711 15.08843026 85448,6917.871,95.437,540.682,538.79,0.0
53701.0,STARLINK-4711,PAYLOAD,2024-03-15 12:19:10,15.088378,0.0001144,53.2148,254.658,102.9057,257.2063,0.00012226,1.658e-05,0.0,0 STARLINK-4711,1 53701U 22107B   24075.51331284  .00001658  00000-0  12226-3 0  9999,2 53701  53.2148 254.6580 0001144 102.9057 257.2063 15.08837800 84787,6917.887,95.438,540.544,538.961,0.0
